{"type": "FeatureCollection", "features": [ {"type": "Feature", "properties": {"norad_id": 66940, "name": "STARLINK-36121", "group": "last-30-days", "lat": -26.375607011982883, "lon": -22.140217817676874, "alt_km": 359.3772311726816, "timestamp": "2025-12-22T20:43:44.567391+00:00", "meta": {"OBJECT_NAME": "STARLINK-36121", "OBJECT_ID": "2025-286R", "EPOCH": "2025-12-22T14:00:01.999872", "MEAN_MOTION": 15.72401866, "ECCENTRICITY": 0.00010266, "INCLINATION": 53.1584, "RA_OF_ASC_NODE": 1.0728, "ARG_OF_PERICENTER": 84.8952, "MEAN_ANOMALY": 94.1855, "EPHEMERIS_TYPE": 0, "CLASSIFICATION_TYPE": "U", "NORAD_CAT_ID": 66940, "ELEMENT_SET_NO": 999, "REV_AT_EPOCH": 357, "BSTAR": -0.016345515, "MEAN_MOTION_DOT": -0.01962672, "MEAN_MOTION_DDOT": 0}, "tle": {"line1": "1 66940U 25286R   25356.58335648 -.01962672  00000+0 -16346-1 0  9996", "line2": "2 66940  53.1584   1.0728 0001026  84.8952  94.1855 15.72401866  3573"}}, "geometry": {"type": "Point", "coordinates": [-22.140217817676874, -26.375607011982883]}}, {"type": "Feature", "properties": {"norad_id": 66941, "name": "STARLINK-36088", "group": "last-30-days", "lat": -26.987738145223922, "lon": -22.75856708074364, "alt_km": 354.47924376622177, "timestamp": "2025-12-22T20:43:44.567401+00:00", "meta": {"OBJECT_NAME": "STARLINK-36088", "OBJECT_ID": "2025-286S", "EPOCH": "2025-12-22T14:00:01.999872", "MEAN_MOTION": 15.74009009, "ECCENTRICITY": 0.00011888, "INCLINATION": 53.1586, "RA_OF_ASC_NODE": 1.0783, "ARG_OF_PERICENTER": 60.6628, "MEAN_ANOMALY": 115.9419, "EPHEMERIS_TYPE": 0, "CLASSIFICATION_TYPE": "U", "NORAD_CAT_ID": 66941, "ELEMENT_SET_NO": 999, "REV_AT_EPOCH": 357, "BSTAR": -0.014546072, "MEAN_MOTION_DOT": -0.01846328, "MEAN_MOTION_DDOT": 0}, "tle": {"line1": "1 66941U 25286S   25356.58335648 -.01846328  00000+0 -14546-1 0  9996", "line2": "2 66941  53.1586   1.0783 0001188  60.6628 115.9419 15.74009009  3571"}}, "geometry": {"type": "Point", "coordinates": [-22.75856708074364, -26.987738145223922]}}, {"type": "Feature", "properties": {"norad_id": 66942, "name": "STARLINK-36100", "group": "last-30-days", "lat": -24.94680441093857, "lon": -20.730360457287734, "alt_km": 359.25752778132846, "timestamp": "2025-12-22T20:43:44.567411+00:00", "meta": {"OBJECT_NAME": "STARLINK-36100", "OBJECT_ID": "2025-286T", "EPOCH": "2025-12-22T14:00:01.999872", "MEAN_MOTION": 15.72395977, "ECCENTRICITY": 0.00010126, "INCLINATION": 53.1584, "RA_OF_ASC_NODE": 1.069, "ARG_OF_PERICENTER": 85.7774, "MEAN_ANOMALY": 95.2226, "EPHEMERIS_TYPE": 0, "CLASSIFICATION_TYPE": "U", "NORAD_CAT_ID": 66942, "ELEMENT_SET_NO": 999, "REV_AT_EPOCH": 350, "BSTAR": -0.01627649, "MEAN_MOTION_DOT": -0.01954892, "MEAN_MOTION_DDOT": 0}, "tle": {"line1": "1 66942U 25286T   25356.58335648 -.01954892  00000+0 -16276-1 0  9995", "line2": "2 66942  53.1584   1.0690 0001012  85.7774  95.2226 15.72395977  3502"}}, "geometry": {"type": "Point", "coordinates": [-20.730360457287734, -24.94680441093857]}}, {"type": "Feature", "properties": {"norad_id": 66943, "name": "STARLINK-36109", "group": "last-30-days", "lat": -23.504349770562385, "lon": -19.352665342047786, "alt_km": 359.1416523009466, "timestamp": "2025-12-22T20:43:44.567421+00:00", "meta": {"OBJECT_NAME": "STARLINK-36109", "OBJECT_ID": "2025-286U", "EPOCH": "2025-12-22T14:00:01.999872", "MEAN_MOTION": 15.72393144, "ECCENTRICITY": 0.00010828, "INCLINATION": 53.1587, "RA_OF_ASC_NODE": 1.0648, "ARG_OF_PERICENTER": 84.458, "MEAN_ANOMALY": 98.4621, "EPHEMERIS_TYPE": 0, "CLASSIFICATION_TYPE": "U", "NORAD_CAT_ID": 66943, "ELEMENT_SET_NO": 999, "REV_AT_EPOCH": 350, "BSTAR": -0.016257779, "MEAN_MOTION_DOT": -0.01952746, "MEAN_MOTION_DDOT": 0}, "tle": {"line1": "1 66943U 25286U   25356.58335648 -.01952746  00000+0 -16258-1 0  9992", "line2": "2 66943  53.1587   1.0648 0001082  84.4580  98.4621 15.72393144  3505"}}, "geometry": {"type": "Point", "coordinates": [-19.352665342047786, -23.504349770562385]}}, {"type": "Feature", "properties": {"norad_id": 66944, "name": "STARLINK-36112", "group": "last-30-days", "lat": -22.050769336639537, "lon": -18.005769872354055, "alt_km": 358.9784831788984, "timestamp": "2025-12-22T20:43:44.567433+00:00", "meta": {"OBJECT_NAME": "STARLINK-36112", "OBJECT_ID": "2025-286V", "EPOCH": "2025-12-22T14:00:01.999872", "MEAN_MOTION": 15.72393717, "ECCENTRICITY": 0.00011972, "INCLINATION": 53.1586, "RA_OF_ASC_NODE": 1.0609, "ARG_OF_PERICENTER": 79.5729, "MEAN_ANOMALY": 105.2634, "EPHEMERIS_TYPE": 0, "CLASSIFICATION_TYPE": "U", "NORAD_CAT_ID": 66944, "ELEMENT_SET_NO": 999, "REV_AT_EPOCH": 357, "BSTAR": -0.016242237, "MEAN_MOTION_DOT": -0.01951224, "MEAN_MOTION_DDOT": 0}, "tle": {"line1": "1 66944U 25286V   25356.58335648 -.01951224  00000+0 -16242-1 0  9996", "line2": "2 66944  53.1586   1.0609 0001197  79.5729 105.2634 15.72393717  3573"}}, "geometry": {"type": "Point", "coordinates": [-18.005769872354055, -22.050769336639537]}}, {"type": "Feature", "properties": {"norad_id": 66945, "name": "STARLINK-36110", "group": "last-30-days", "lat": -20.58632654859283, "lon": -16.686317507901386, "alt_km": 358.81967939479637, "timestamp": "2025-12-22T20:43:44.567443+00:00", "meta": {"OBJECT_NAME": "STARLINK-36110", "OBJECT_ID": "2025-286W", "EPOCH": "2025-12-22T14:00:01.999872", "MEAN_MOTION": 15.72396558, "ECCENTRICITY": 0.0001141, "INCLINATION": 53.1587, "RA_OF_ASC_NODE": 1.057, "ARG_OF_PERICENTER": 79.8214, "MEAN_ANOMALY": 106.9279, "EPHEMERIS_TYPE": 0, "CLASSIFICATION_TYPE": "U", "NORAD_CAT_ID": 66945, "ELEMENT_SET_NO": 999, "REV_AT_EPOCH": 357, "BSTAR": -0.016260523, "MEAN_MOTION_DOT": -0.01953336, "MEAN_MOTION_DDOT": 0}, "tle": {"line1": "1 66945U 25286W   25356.58335648 -.01953336  00000+0 -16261-1 0  9994", "line2": "2 66945  53.1587   1.0570 0001141  79.8214 106.9279 15.72396558  3572"}}, "geometry": {"type": "Point", "coordinates": [-16.686317507901386, -20.58632654859283]}}, {"type": "Feature", "properties": {"norad_id": 66946, "name": "STARLINK-36115", "group": "last-30-days", "lat": -19.11181519475273, "lon": -15.391977469064285, "alt_km": 358.7175482434559, "timestamp": "2025-12-22T20:43:44.567452+00:00", "meta": {"OBJECT_NAME": "STARLINK-36115", "OBJECT_ID": "2025-286X", "EPOCH": "2025-12-22T14:00:01.999872", "MEAN_MOTION": 15.72403227, "ECCENTRICITY": 0.00012422, "INCLINATION": 53.1586, "RA_OF_ASC_NODE": 1.0532, "ARG_OF_PERICENTER": 82.9869, "MEAN_ANOMALY": 105.6747, "EPHEMERIS_TYPE": 0, "CLASSIFICATION_TYPE": "U", "NORAD_CAT_ID": 66946, "ELEMENT_SET_NO": 999, "REV_AT_EPOCH": 357, "BSTAR": -0.016319188, "MEAN_MOTION_DOT": -0.01960144, "MEAN_MOTION_DDOT": 0}, "tle": {"line1": "1 66946U 25286X   25356.58335648 -.01960144  00000+0 -16319-1 0  9994", "line2": "2 66946  53.1586   1.0532 0001242  82.9869 105.6747 15.72403227  3571"}}, "geometry": {"type": "Point", "coordinates": [-15.391977469064285, -19.11181519475273]}}, {"type": "Feature", "properties": {"norad_id": 66947, "name": "STARLINK-36089", "group": "last-30-days", "lat": -16.134278020167972, "lon": -12.869219970350759, "alt_km": 358.2575329442225, "timestamp": "2025-12-22T20:43:44.567462+00:00", "meta": {"OBJECT_NAME": "STARLINK-36089", "OBJECT_ID": "2025-286Y", "EPOCH": "2025-12-22T14:00:01.999872", "MEAN_MOTION": 15.72405876, "ECCENTRICITY": 9.883e-05, "INCLINATION": 53.1586, "RA_OF_ASC_NODE": 1.0443, "ARG_OF_PERICENTER": 72.2645, "MEAN_ANOMALY": 120.2271, "EPHEMERIS_TYPE": 0, "CLASSIFICATION_TYPE": "U", "NORAD_CAT_ID": 66947, "ELEMENT_SET_NO": 999, "REV_AT_EPOCH": 357, "BSTAR": -0.016333511, "MEAN_MOTION_DOT": -0.01961667, "MEAN_MOTION_DDOT": 0}, "tle": {"line1": "1 66947U 25286Y   25356.58335648 -.01961667  00000+0 -16334-1 0  9993", "line2": "2 66947  53.1586   1.0443 0000988  72.2645 120.2271 15.72405876  3570"}}, "geometry": {"type": "Point", "coordinates": [-12.869219970350759, -16.134278020167972]}}, {"type": "Feature", "properties": {"norad_id": 66948, "name": "STARLINK-36116", "group": "last-30-days", "lat": -17.626260113990654, "lon": -14.119443531455609, "alt_km": 358.4004109683283, "timestamp": "2025-12-22T20:43:44.567472+00:00", "meta": {"OBJECT_NAME": "STARLINK-36116", "OBJECT_ID": "2025-286Z", "EPOCH": "2025-12-22T14:00:01.999872", "MEAN_MOTION": 15.72404094, "ECCENTRICITY": 9.042e-05, "INCLINATION": 53.1587, "RA_OF_ASC_NODE": 1.0487, "ARG_OF_PERICENTER": 71.1812, "MEAN_ANOMALY": 119.3945, "EPHEMERIS_TYPE": 0, "CLASSIFICATION_TYPE": "U", "NORAD_CAT_ID": 66948, "ELEMENT_SET_NO": 999, "REV_AT_EPOCH": 357, "BSTAR": -0.016317477, "MEAN_MOTION_DOT": -0.01959768, "MEAN_MOTION_DDOT": 0}, "tle": {"line1": "1 66948U 25286Z   25356.58335648 -.01959768  00000+0 -16317-1 0  9994", "line2": "2 66948  53.1587   1.0487 0000904  71.1812 119.3945 15.72404094  3570"}}, "geometry": {"type": "Point", "coordinates": [-14.119443531455609, -17.626260113990654]}}, {"type": "Feature", "properties": {"norad_id": 66949, "name": "STARLINK-36096", "group": "last-30-days", "lat": -14.633062364856155, "lon": -11.634926392046161, "alt_km": 358.36183067108595, "timestamp": "2025-12-22T20:43:44.567482+00:00", "meta": {"OBJECT_NAME": "STARLINK-36096", "OBJECT_ID": "2025-286AA", "EPOCH": "2025-12-22T14:00:01.999872", "MEAN_MOTION": 15.72395356, "ECCENTRICITY": 0.00011658, "INCLINATION": 53.1583, "RA_OF_ASC_NODE": 1.0412, "ARG_OF_PERICENTER": 96.0521, "MEAN_ANOMALY": 98.367, "EPHEMERIS_TYPE": 0, "CLASSIFICATION_TYPE": "U", "NORAD_CAT_ID": 66949, "ELEMENT_SET_NO": 999, "REV_AT_EPOCH": 357, "BSTAR": -0.016273094, "MEAN_MOTION_DOT": -0.01954602, "MEAN_MOTION_DDOT": 0}, "tle": {"line1": "1 66949U 25286AA  25356.58335648 -.01954602  00000+0 -16273-1 0  9998", "line2": "2 66949  53.1583   1.0412 0001165  96.0521  98.3670 15.72395356  3579"}}, "geometry": {"type": "Point", "coordinates": [-11.634926392046161, -14.633062364856155]}}]}